H1 CPF 01  gfz 2022 02 19 13  5502 terrasarx 
H2 0702601  6201 31698    2022 02 19 12 59 42 2022 02 24 00 00 42   120 1 1  0 0 0
H9
10 0 59632  52542.000000  0     131460.595   1572662.996  -6711970.153
10 0 59632  52662.000000  0     723502.894   2235991.355  -6482044.750
10 0 59632  52782.000000  0    1314189.083   2850225.498  -6138997.299
10 0 59632  52902.000000  0    1892315.985   3404809.400  -5688741.200
10 0 59632  53022.000000  0    2446704.513   3890393.064  -5139054.364
10 0 59632  53142.000000  0    2966413.630   4298992.994  -4499456.467
10 0 59632  53262.000000  0    3440955.968   4624129.918  -3781055.247
10 0 59632  53382.000000  0    3860510.874   4860939.274  -2996362.758
10 0 59632  53502.000000  0    4216130.974   5006251.462  -2159083.227
10 0 59632  53622.000000  0    4499935.149   5058638.918  -1283876.044
10 0 59632  53742.000000  0    4705285.190   5018430.622   -386098.234
10 0 59632  53862.000000  0    4826940.175   4887689.597    518470.725
10 0 59632  53982.000000  0    4861182.537   4670155.066   1413912.890
10 0 59632  54102.000000  0    4805915.747   4371152.660   2284459.098
10 0 59632  54222.000000  0    4660730.653   3997471.913   3114776.416
10 0 59632  54342.000000  0    4426935.124   3557213.609   3890246.792
10 0 59632  54462.000000  0    4107548.172   3059612.448   4597229.317
10 0 59632  54582.000000  0    3707261.330   2514840.678   5223302.140
10 0 59632  54702.000000  0    3232364.357   1933795.668   5757481.581
10 0 59632  54822.000000  0    2690639.819   1327878.476   6190409.954
10 0 59632  54942.000000  0    2091230.748    708766.952   6514513.572
10 0 59632  55062.000000  0    1444482.534     88190.068   6724128.114
10 0 59632  55182.000000  0     761762.047   -522292.844   6815593.353
10 0 59632  55302.000000  0      55256.416  -1111507.727   6787313.819
10 0 59632  55422.000000  0    -662244.829  -1668869.985   6639784.168
10 0 59632  55542.000000  0   -1377581.006  -2184574.618   6375580.163
10 0 59632  55662.000000  0   -2077459.845  -2649768.317   5999315.054
10 0 59632  55782.000000  0   -2748702.451  -3056702.099   5517565.721
10 0 59632  55902.000000  0   -3378494.075  -3398864.461   4938766.036
10 0 59632  56022.000000  0   -3954633.879  -3671089.279   4273063.748
10 0 59632  56142.000000  0   -4465775.480  -3869636.505   3532145.974
10 0 59632  56262.000000  0   -4901655.206  -3992244.822   2729036.709
10 0 59632  56382.000000  0   -5253304.177  -4038155.513   1877868.552
10 0 59632  56502.000000  0   -5513238.149  -4008105.620    993629.963
10 0 59632  56622.000000  0   -5675619.213  -3904289.473     91895.019
10 0 59632  56742.000000  0   -5736385.941  -3730290.441   -811458.935
10 0 59632  56862.000000  0   -5693348.200  -3490984.299  -1700540.586
10 0 59632  56982.000000  0   -5546242.421  -3192415.481  -2559733.695
10 0 59632  57102.000000  0   -5296747.671  -2841651.339  -3373977.104
10 0 59632  57222.000000  0   -4948463.242  -2446618.391  -4129031.678
10 0 59632  57342.000000  0   -4506848.961  -2015924.623  -4811728.529
10 0 59632  57462.000000  0   -3979129.894  -1558672.918  -5410194.633
10 0 59632  57582.000000  0   -3374168.358  -1084269.222  -5914051.972
10 0 59632  57702.000000  0   -2702307.002   -602230.192  -6314587.023
10 0 59632  57822.000000  0   -1975186.676   -121994.728  -6604890.063
10 0 59632  57942.000000  0   -1205541.953    347256.914  -6779962.582
10 0 59632  58062.000000  0    -406980.291    796773.348  -6836793.158
10 0 59632  58182.000000  0     406253.390   1218391.170  -6774403.409
10 0 59632  58302.000000  0    1219523.484   1604678.473  -6593863.766
10 0 59632  58422.000000  0    2018061.764   1949063.629  -6298279.163
10 0 59632  58542.000000  0    2787230.475   2245946.136  -5892741.102
10 0 59632  58662.000000  0    3512787.214   2490787.550  -5384248.050
10 0 59632  58782.000000  0    4181146.530   2680181.538  -4781596.019
10 0 59632  58902.000000  0    4779637.331   2811902.664  -4095238.349
10 0 59632  59022.000000  0    5296748.794   2884931.500  -3337113.621
10 0 59632  59142.000000  0    5722358.530   2899455.664  -2520445.796
10 0 59632  59262.000000  0    6047941.127   2856847.330  -1659518.654
10 0 59632  59382.000000  0    6266748.197   2759614.866   -769425.227
10 0 59632  59502.000000  0    6373956.074   2611331.019    134199.828
10 0 59632  59622.000000  0    6366776.061   2416537.608   1035462.116
10 0 59632  59742.000000  0    6244524.142   2180630.247   1918493.580
10 0 59632  59862.000000  0    6008650.665   1909727.100   2767740.970
10 0 59632  59982.000000  0    5662725.015   1610521.931   3568248.769
10 0 59632  60102.000000  0    5212377.518   1290127.408   4305929.549
10 0 59632  60222.000000  0    4665199.228    955911.913   4967815.011
10 0 59632  60342.000000  0    4030605.967    615335.157   5542284.106
10 0 59632  60462.000000  0    3319666.454    275784.596   6019266.019
10 0 59632  60582.000000  0    2544899.622    -55581.507   6390410.735
10 0 59632  60702.000000  0    1720049.094   -371981.330   6649228.602
10 0 59632  60822.000000  0     859836.042   -667145.890   6791199.115
10 0 59632  60942.000000  0     -20306.531   -935441.985   6813845.283
10 0 59632  61062.000000  0    -904510.916  -1171978.703   6716773.025
10 0 59632  61182.000000  0   -1776759.848  -1372696.692   6501676.754
10 0 59632  61302.000000  0   -2621174.856  -1534437.497   6172310.601
10 0 59632  61422.000000  0   -3422303.737  -1654992.493   5734428.599
10 0 59632  61542.000000  0   -4165407.026  -1733132.522   5195692.079
10 0 59632  61662.000000  0   -4836734.784  -1768616.828   4565541.047
10 0 59632  61782.000000  0   -5423788.319  -1762179.909   3855033.051
10 0 59632  61902.000000  0   -5915560.471  -1715496.258   3076651.632
10 0 59632  62022.000000  0   -6302750.443  -1631124.630   2244088.952
10 0 59632  62142.000000  0   -6577950.514  -1512433.583   1372004.006
10 0 59632  62262.000000  0   -6735796.174  -1363508.508    475757.743
10 0 59632  62382.000000  0   -6773074.853  -1189042.341   -428865.344
10 0 59632  62502.000000  0   -6688791.678   -994213.261  -1325944.386
10 0 59632  62622.000000  0   -6484189.956   -784552.611  -2199711.118
10 0 59632  62742.000000  0   -6162727.198   -565807.026  -3034833.579
10 0 59632  62862.000000  0   -5730007.613   -343798.308  -3816690.650
10 0 59632  62982.000000  0   -5193671.712   -124282.683  -4531629.689
10 0 59632  63102.000000  0   -4563248.189     87185.404  -5167201.930
10 0 59632  63222.000000  0   -3849972.709    285381.652  -5712373.298
10 0 59632  63342.000000  0   -3066576.636    465529.529  -6157706.431
10 0 59632  63462.000000  0   -2227053.065    623405.218  -6495511.455
10 0 59632  63582.000000  0   -1346405.085    755427.818  -6719967.611
10 0 59632  63702.000000  0    -440378.528    858734.066  -6827213.221
10 0 59632  63822.000000  0     474814.089    931236.171  -6815403.334
10 0 59632  63942.000000  0    1382775.234    971661.402  -6684739.367
10 0 59632  64062.000000  0    2267210.421    979574.062  -6437468.021
10 0 59632  64182.000000  0    3112215.067    955379.173  -6077846.553
10 0 59632  64302.000000  0    3902556.494    900307.560  -5612076.079
10 0 59632  64422.000000  0    4623946.498    816382.084  -5048205.196
10 0 59632  64542.000000  0    5263302.683    706366.282  -4396002.827
10 0 59632  64662.000000  0    5808992.688    573695.923  -3666799.319
10 0 59632  64782.000000  0    6251055.006    422394.040  -2873298.355
10 0 59632  64902.000000  0    6581392.815    256971.775  -2029362.327
10 0 59632  65022.000000  0    6793936.134     82316.321  -1149771.996
10 0 59632  65142.000000  0    6884764.588    -96431.033   -249965.056
10 0 59632  65262.000000  0    6852189.053   -274003.489    654239.280
10 0 59632  65382.000000  0    6696790.016   -445141.866   1546925.877
10 0 59632  65502.000000  0    6421409.973   -604728.016   2412372.692
10 0 59632  65622.000000  0    6031099.384   -747915.233   3235337.510
10 0 59632  65742.000000  0    5533017.134   -870251.999   4001333.042
10 0 59632  65862.000000  0    4936292.126   -967796.160   4696886.359
10 0 59632  65982.000000  0    4251845.631  -1037217.512   5309778.368
10 0 59632  66102.000000  0    3492180.880  -1075884.044   5829256.895
10 0 59632  66222.000000  0    2671145.798  -1081932.075   6246221.494
10 0 59632  66342.000000  0    1803673.808  -1054318.791   6553377.116
10 0 59632  66462.000000  0     905507.895   -992856.190   6745356.780
10 0 59632  66582.000000  0      -7088.645   -898225.011   6818809.653
10 0 59632  66702.000000  0    -917627.044   -771969.018   6772454.468
10 0 59632  66822.000000  0   -1809689.580   -616470.050   6607099.797
10 0 59632  66942.000000  0   -2667223.979   -434903.401   6325630.660
10 0 59632  67062.000000  0   -3474831.510   -231174.683   5932962.434
10 0 59632  67182.000000  0   -4218045.847     -9839.037   5435961.270
10 0 59632  67302.000000  0   -4883597.472    223996.004   4843330.270
10 0 59632  67422.000000  0   -5459657.867    464781.883   4165462.444
10 0 59632  67542.000000  0   -5936058.546    706653.248   3414262.038
10 0 59632  67662.000000  0   -6304479.745    943562.189   2602937.805
10 0 59632  67782.000000  0   -6558605.727   1169419.617   1745770.011
10 0 59632  67902.000000  0   -6694241.742   1378239.875    857855.420
10 0 59632  68022.000000  0   -6709389.675   1564285.667    -45165.712
10 0 59632  68142.000000  0   -6604278.214   1722209.182   -947394.357
10 0 59632  68262.000000  0   -6381347.657   1847185.104  -1832961.359
10 0 59632  68382.000000  0   -6045191.500   1935033.382  -2686314.200
10 0 59632  68502.000000  0   -5602454.652   1982328.516  -3492497.409
10 0 59632  68622.000000  0   -5061690.761   1986491.268  -4237418.147
10 0 59632  68742.000000  0   -4433184.726   1945861.534  -4908091.120
10 0 59632  68862.000000  0   -3728745.497   1859751.215  -5492859.344
10 0 59632  68982.000000  0   -2961475.441   1728476.502  -5981587.533
99
